{
  "type": "FeatureCollection",
  "features": [
    {
      "type": "Feature",
      "properties": {
        "norad_id": 37048,
        "name": "FENGYUN 1C DEB",
        "group": "fengyun-1c-debris",
        "lat": 5.22053917118686,
        "lon": -154.09582217991777,
        "alt_km": 1176.3907067533628,
        "timestamp": "2025-12-11T07:02:24.019020+00:00",
        "meta_object_name": "FENGYUN 1C DEB",
        "meta_object_id": "1999-025EEG",
        "meta_epoch": "2025-12-08T21:18:37.158048",
        "meta_mean_motion": 13.6513296,
        "meta_eccentricity": 0.025318,
        "meta_inclination": 98.885,
        "meta_ra_of_asc_node": 204.5179,
        "meta_arg_of_pericenter": 159.5311,
        "meta_mean_anomaly": 272.4204,
        "meta_ephemeris_type": 0,
        "meta_classification_type": "U",
        "meta_norad_cat_id": 37048,
        "meta_element_set_no": 999,
        "meta_rev_at_epoch": 62117,
        "meta_bstar": 0.00022488,
        "meta_mean_motion_dot": 1.89e-06,
        "meta_mean_motion_ddot": 0,
        "tle_line1": "1 37048U 99025EEG 25342.88793007  .00000189  00000+0  22488-3 0  9999",
        "tle_line2": "2 37048  98.8850 204.5179 0253180 159.5311 272.4204 13.65132960621178"
      },
      "geometry": {
        "type": "Point",
        "coordinates": [
          -154.09582217991777,
          5.22053917118686
        ]
      }
    },
    {
      "type": "Feature",
      "properties": {
        "norad_id": 37054,
        "name": "FENGYUN 1C DEB",
        "group": "fengyun-1c-debris",
        "lat": 78.96679515476603,
        "lon": -161.71060391144593,
        "alt_km": 748.9238995896467,
        "timestamp": "2025-12-11T07:02:24.019030+00:00",
        "meta_object_name": "FENGYUN 1C DEB",
        "meta_object_id": "1999-025EEN",
        "meta_epoch": "2025-11-29T05:17:38.461056",
        "meta_mean_motion": 14.19427383,
        "meta_eccentricity": 0.01006888,
        "meta_inclination": 98.5491,
        "meta_ra_of_asc_node": 316.1491,
        "meta_arg_of_pericenter": 144.0639,
        "meta_mean_anomaly": 216.7364,
        "meta_ephemeris_type": 0,
        "meta_classification_type": "U",
        "meta_norad_cat_id": 37054,
        "meta_element_set_no": 999,
        "meta_rev_at_epoch": 64237,
        "meta_bstar": 0.00028093156,
        "meta_mean_motion_dot": 5.8e-06,
        "meta_mean_motion_ddot": 0,
        "tle_line1": "1 37054U 99025EEN 25333.22058404  .00000580  00000+0  28093-3 0  9992",
        "tle_line2": "2 37054  98.5491 316.1491 0100688 144.0639 216.7364 14.19427383642375"
      },
      "geometry": {
        "type": "Point",
        "coordinates": [
          -161.71060391144593,
          78.96679515476603
        ]
      }
    },
    {
      "type": "Feature",
      "properties": {
        "norad_id": 37056,
        "name": "FENGYUN 1C DEB",
        "group": "fengyun-1c-debris",
        "lat": 56.100597669975066,
        "lon": -158.90332731204188,
        "alt_km": 548.3148471945906,
        "timestamp": "2025-12-11T07:02:24.019040+00:00",
        "meta_object_name": "FENGYUN 1C DEB",
        "meta_object_id": "1999-025EEQ",
        "meta_epoch": "2025-12-10T18:53:13.356096",
        "meta_mean_motion": 14.50438483,
        "meta_eccentricity": 0.02687271,
        "meta_inclination": 98.9828,
        "meta_ra_of_asc_node": 6.9407,
        "meta_arg_of_pericenter": 151.7146,
        "meta_mean_anomaly": 209.8942,
        "meta_ephemeris_type": 0,
        "meta_classification_type": "U",
        "meta_norad_cat_id": 37056,
        "meta_element_set_no": 999,
        "meta_rev_at_epoch": 65383,
        "meta_bstar": 0.00043069455,
        "meta_mean_motion_dot": 2.622e-05,
        "meta_mean_motion_ddot": 0,
        "tle_line1": "1 37056U 99025EEQ 25344.78696014  .00002622  00000+0  43069-3 0  9991",
        "tle_line2": "2 37056  98.9828   6.9407 0268727 151.7146 209.8942 14.50438483653839"
      },
      "geometry": {
        "type": "Point",
        "coordinates": [
          -158.90332731204188,
          56.100597669975066
        ]
      }
    },
    {
      "type": "Feature",
      "properties": {
        "norad_id": 37057,
        "name": "FENGYUN 1C DEB",
        "group": "fengyun-1c-debris",
        "lat": 16.34558981339276,
        "lon": -177.2165626244578,
        "alt_km": 711.8818819249191,
        "timestamp": "2025-12-11T07:02:24.019050+00:00",
        "meta_object_name": "FENGYUN 1C DEB",
        "meta_object_id": "1999-025EER",
        "meta_epoch": "2025-12-09T18:09:13.045536",
        "meta_mean_motion": 13.96100617,
        "meta_eccentricity": 0.02851594,
        "meta_inclination": 98.9229,
        "meta_ra_of_asc_node": 358.6511,
        "meta_arg_of_pericenter": 147.6005,
        "meta_mean_anomaly": 214.3028,
        "meta_ephemeris_type": 0,
        "meta_classification_type": "U",
        "meta_norad_cat_id": 37057,
        "meta_element_set_no": 999,
        "meta_rev_at_epoch": 63556,
        "meta_bstar": 0.00066354715,
        "meta_mean_motion_dot": 1.241e-05,
        "meta_mean_motion_ddot": 0,
        "tle_line1": "1 37057U 99025EER 25343.75640099  .00001241  00000+0  66355-3 0  9999",
        "tle_line2": "2 37057  98.9229 358.6511 0285159 147.6005 214.3028 13.96100617635564"
      },
      "geometry": {
        "type": "Point",
        "coordinates": [
          -177.2165626244578,
          16.34558981339276
        ]
      }
    },
    {
      "type": "Feature",
      "properties": {
        "norad_id": 37061,
        "name": "FENGYUN 1C DEB",
        "group": "fengyun-1c-debris",
        "lat": -22.352782010271365,
        "lon": -133.35631539237795,
        "alt_km": 1804.4751323499686,
        "timestamp": "2025-12-11T07:02:24.019060+00:00",
        "meta_object_name": "FENGYUN 1C DEB",
        "meta_object_id": "1999-025EEV",
        "meta_epoch": "2025-12-07T10:36:19.723680",
        "meta_mean_motion": 13.13435979,
        "meta_eccentricity": 0.08024331,
        "meta_inclination": 98.0839,
        "meta_ra_of_asc_node": 47.0215,
        "meta_arg_of_pericenter": 18.6625,
        "meta_mean_anomaly": 344.2205,
        "meta_ephemeris_type": 0,
        "meta_classification_type": "U",
        "meta_norad_cat_id": 37061,
        "meta_element_set_no": 999,
        "meta_rev_at_epoch": 8086,
        "meta_bstar": 0.0035272865,
        "meta_mean_motion_dot": 6.852e-05,
        "meta_mean_motion_ddot": 0,
        "tle_line1": "1 37061U 99025EEV 25341.44189495  .00006852  00000+0  35273-2 0  9993",
        "tle_line2": "2 37061  98.0839  47.0215 0802433  18.6625 344.2205 13.13435979 80860"
      },
      "geometry": {
        "type": "Point",
        "coordinates": [
          -133.35631539237795,
          -22.352782010271365
        ]
      }
    },
    {
      "type": "Feature",
      "properties": {
        "norad_id": 37064,
        "name": "FENGYUN 1C DEB",
        "group": "fengyun-1c-debris",
        "lat": -60.22726732528381,
        "lon": 153.3461814836913,
        "alt_km": 921.5239131538028,
        "timestamp": "2025-12-11T07:02:24.019070+00:00",
        "meta_object_name": "FENGYUN 1C DEB",
        "meta_object_id": "1999-025EEY",
        "meta_epoch": "2025-11-25T16:29:09.460320",
        "meta_mean_motion": 14.15612933,
        "meta_eccentricity": 0.01070067,
        "meta_inclination": 98.9095,
        "meta_ra_of_asc_node": 121.83,
        "meta_arg_of_pericenter": 150.7609,
        "meta_mean_anomaly": 209.9612,
        "meta_ephemeris_type": 0,
        "meta_classification_type": "U",
        "meta_norad_cat_id": 37064,
        "meta_element_set_no": 999,
        "meta_rev_at_epoch": 81294,
        "meta_bstar": 0.0049331234,
        "meta_mean_motion_dot": 0.00010179,
        "meta_mean_motion_ddot": 0,
        "tle_line1": "1 37064U 99025EEY 25329.68691505  .00010179  00000+0  49331-2 0  9995",
        "tle_line2": "2 37064  98.9095 121.8300 0107006 150.7609 209.9612 14.15612933812947"
      },
      "geometry": {
        "type": "Point",
        "coordinates": [
          153.3461814836913,
          -60.22726732528381
        ]
      }
    },
    {
      "type": "Feature",
      "properties": {
        "norad_id": 37065,
        "name": "FENGYUN 1C DEB",
        "group": "fengyun-1c-debris",
        "lat": 60.55414090124328,
        "lon": 4.3181646913159355,
        "alt_km": 1168.594764001703,
        "timestamp": "2025-12-11T07:02:24.019080+00:00",
        "meta_object_name": "FENGYUN 1C DEB",
        "meta_object_id": "1999-025EEZ",
        "meta_epoch": "2025-12-08T18:22:24.057408",
        "meta_mean_motion": 13.59087735,
        "meta_eccentricity": 0.0299072,
        "meta_inclination": 103.286,
        "meta_ra_of_asc_node": 156.1612,
        "meta_arg_of_pericenter": 251.0293,
        "meta_mean_anomaly": 105.8204,
        "meta_ephemeris_type": 0,
        "meta_classification_type": "U",
        "meta_norad_cat_id": 37065,
        "meta_element_set_no": 999,
        "meta_rev_at_epoch": 22148,
        "meta_bstar": 0.0044200447,
        "meta_mean_motion_dot": 4.289e-05,
        "meta_mean_motion_ddot": 0,
        "tle_line1": "1 37065U 99025EEZ 25342.76555622  .00004289  00000+0  44200-2 0  9994",
        "tle_line2": "2 37065 103.2860 156.1612 0299072 251.0293 105.8204 13.59087735221481"
      },
      "geometry": {
        "type": "Point",
        "coordinates": [
          4.3181646913159355,
          60.55414090124328
        ]
      }
    }
  ]
}